$$SOE
2461295.500000000, A.D. 2026-Sep-12 00:00:00.0000, 1.553046508143225E+08, 2.768518127233762E+08, -4.000962236672550E+06,
2461302.500000000, A.D. 2026-Sep-19 00:00:00.0000, 1.450908210929316E+08, 2.847615722898828E+08, -3.154972865017027E+06,
2461309.500000000, A.D. 2026-Sep-26 00:00:00.0000, 1.346611856501319E+08, 2.922479918357287E+08, -2.304287494529545E+06,
2461316.500000000, A.D. 2026-Oct-03 00:00:00.0000, 1.240352847115133E+08, 2.993086991714923E+08, -1.450239970344484E+06,
2461323.500000000, A.D. 2026-Oct-10 00:00:00.0000, 1.132322595084185E+08, 3.059422475364729E+08, -5.941173353117853E+05,
2461330.500000000, A.D. 2026-Oct-17 00:00:00.0000, 1.022708162625860E+08, 3.121480553233777E+08, 2.628411851632595E+05,
2461337.500000000, A.D. 2026-Oct-24 00:00:00.0000, 9.116919638898575E+07, 3.179263464146933E+08, 1.119444798071370E+06,
2461344.500000000, A.D. 2026-Oct-31 00:00:00.0000, 7.994515254829001E+07, 3.232780915456269E+08, 1.974551384572834E+06,
2461351.500000000, A.D. 2026-Nov-07 00:00:00.0000, 6.861593041070546E+07, 3.282049511680403E+08, 2.827067384004578E+06,
2461358.500000000, A.D. 2026-Nov-14 00:00:00.0000, 5.719825585709117E+07, 3.327092210290534E+08, 3.675947412804365E+06,
2461365.500000000, A.D. 2026-Nov-21 00:00:00.0000, 4.570832534456306E+07, 3.367937813973339E+08, 4.520193876193672E+06,
2461372.500000000, A.D. 2026-Nov-28 00:00:00.0000, 3.416179798654860E+07, 3.404620471014934E+08, 5.358856452664152E+06,
2461379.500000000, A.D. 2026-Dec-05 00:00:00.0000, 2.257379252356170E+07, 3.437179178498570E+08, 6.191031098292455E+06,
2461386.500000000, A.D. 2026-Dec-12 00:00:00.0000, 1.095888893565254E+07, 3.465657320292150E+08, 7.015858838872790E+06,
2461393.500000000, A.D. 2026-Dec-19 00:00:00.0000, -6.688675810190792E+05, 3.490102240285996E+08, 7.832524550066665E+06,
2461400.500000000, A.D. 2026-Dec-26 00:00:00.0000, -1.229596078111484E+07, 3.510564842302629E+08, 8.640255692077234E+06,
2461407.500000000, A.D. 2027-Jan-02 00:00:00.0000, -2.390939573800183E+07, 3.527099214614828E+08, 9.438320979326561E+06,
2461414.500000000, A.D. 2027-Jan-09 00:00:00.0000, -3.549668959921823E+07, 3.539762278855333E+08, 1.022602899466141E+07,
2461421.500000000, A.D. 2027-Jan-16 00:00:00.0000, -4.704586097141353E+07, 3.548613462772969E+08, 1.100272676196539E+07,
2461428.500000000, A.D. 2027-Jan-23 00:00:00.0000, -5.854541814030722E+07, 3.553714395651138E+08, 1.176779828430249E+07,
2461435.500000000, A.D. 2027-Jan-30 00:00:00.0000, -6.998434616369668E+07, 3.555128625008336E+08, 1.252066303933792E+07,
2461442.500000000, A.D. 2027-Feb-06 00:00:00.0000, -8.135209261406274E+07, 3.552921356991698E+08, 1.326077443202074E+07,
2461449.500000000, A.D. 2027-Feb-13 00:00:00.0000, -9.263855260970217E+07, 3.547159231626134E+08, 1.398761835580173E+07,
2461456.500000000, A.D. 2027-Feb-20 00:00:00.0000, -1.038340556522025E+08, 3.537910123936776E+08, 1.470071202201587E+07,
2461463.500000000, A.D. 2027-Feb-27 00:00:00.0000, -1.149293530073982E+08, 3.525242937621546E+08, 1.539960267298965E+07,
2461470.500000000, A.D. 2027-Mar-06 00:00:00.0000, -1.259156027357843E+08, 3.509227409339482E+08, 1.608386606469791E+07,
2461477.500000000, A.D. 2027-Mar-13 00:00:00.0000, -1.367843540781040E+08, 3.489933943069144E+08, 1.675310503721230E+07,
2461484.500000000, A.D. 2027-Mar-20 00:00:00.0000, -1.475275324110810E+08, 3.467433465123782E+08, 1.740694821124066E+07,
2461491.500000000, A.D. 2027-Mar-27 00:00:00.0000, -1.581374246453618E+08, 3.441797293267071E+08, 1.804504874976072E+07,
2461498.500000000, A.D. 2027-Apr-03 00:00:00.0000, -1.686066649261415E+08, 3.413097018435393E+08, 1.866708316402541E+07,
2461505.500000000, A.D. 2027-Apr-10 00:00:00.0000, -1.789282206279838E+08, 3.381404398331150E+08, 1.927275016141811E+07,
2461512.500000000, A.D. 2027-Apr-17 00:00:00.0000, -1.890953786649433E+08, 3.346791261824757E+08, 1.986176953268656E+07,
2461519.500000000, A.D. 2027-Apr-24 00:00:00.0000, -1.991017320715595E+08, 3.309329422670637E+08, 2.043388106651887E+07,
2461526.500000000, A.D. 2027-May-01 00:00:00.0000, -2.089411665825936E+08, 3.269090601987832E+08, 2.098884346622092E+07,
2461533.500000000, A.D. 2027-May-08 00:00:00.0000, -2.186078469258653E+08, 3.226146366209219E+08, 2.152643330116159E+07,
2461540.500000000, A.D. 2027-May-15 00:00:00.0000, -2.280962043426334E+08, 3.180568089318959E+08, 2.204644420766729E+07,
2461547.500000000, A.D. 2027-May-22 00:00:00.0000, -2.374009269099000E+08, 3.132426912812116E+08, 2.254868627018093E+07,
2461554.500000000, A.D. 2027-May-29 00:00:00.0000, -2.465169493110946E+08, 3.081793688028945E+08, 2.303298515391463E+07,
2461561.500000000, A.D. 2027-Jun-05 00:00:00.0000, -2.554394411752727E+08, 3.028738931545354E+08, 2.349918116288453E+07,
2461568.500000000, A.D. 2027-Jun-12 00:00:00.0000, -2.641637959966051E+08, 2.973332797417101E+08, 2.394712844172384E+07,
2461575.500000000, A.D. 2027-Jun-19 00:00:00.0000, -2.726856209626321E+08, 2.915645056440232E+08, 2.437669427407169E+07,
2461582.500000000, A.D. 2027-Jun-26 00:00:00.0000, -2.810007274068674E+08, 2.855745079337556E+08, 2.478775842941886E+07,
2461589.500000000, A.D. 2027-Jul-03 00:00:00.0000, -2.891051217480116E+08, 2.793701823512321E+08, 2.518021254586300E+07,
2461596.500000000, A.D. 2027-Jul-10 00:00:00.0000, -2.969949968724478E+08, 2.729583823053691E+08, 2.555395954502743E+07,
2461603.500000000, A.D. 2027-Jul-17 00:00:00.0000, -3.046667239162420E+08, 2.663459181238678E+08, 2.590891307158346E+07,
2461610.500000000, A.D. 2027-Jul-24 00:00:00.0000, -3.121168442818754E+08, 2.595395564568853E+08, 2.624499693685888E+07,
2461617.500000000, A.D. 2027-Jul-31 00:00:00.0000, -3.193420614688592E+08, 2.525460200393196E+08, 2.656214454698783E+07,
2461624.500000000, A.D. 2027-Aug-07 00:00:00.0000, -3.263392329086745E+08, 2.453719889355979E+08, 2.686029842698731E+07,
2461631.500000000, A.D. 2027-Aug-14 00:00:00.0000, -3.331053640948223E+08, 2.380241029889259E+08, 2.713941002984044E+07,
2461638.500000000, A.D. 2027-Aug-21 00:00:00.0000, -3.396376043766118E+08, 2.305089620887442E+08, 2.739943949752520E+07,
2461645.500000000, A.D. 2027-Aug-28 00:00:00.0000, -3.459332409684061E+08, 2.228331254340453E+08, 2.764035515605579E+07,
2461652.500000000, A.D. 2027-Sep-04 00:00:00.0000, -3.519896923447563E+08, 2.150031122679544E+08, 2.786213305590840E+07,
2461659.500000000, A.D. 2027-Sep-11 00:00:00.0000, -3.578045024128008E+08, 2.070254034031215E+08, 2.806475663069148E+07,
2461666.500000000, A.D. 2027-Sep-18 00:00:00.0000, -3.633753353234385E+08, 1.989064428743780E+08, 2.824821640781076E+07,
2461673.500000000, A.D. 2027-Sep-25 00:00:00.0000, -3.686999706846434E+08, 1.906526396294791E+08, 2.841250974281715E+07,
2461680.500000000, A.D. 2027-Oct-02 00:00:00.0000, -3.737762990927064E+08, 1.822703692746871E+08, 2.855764057169370E+07,
2461687.500000000, A.D. 2027-Oct-09 00:00:00.0000, -3.786023179491388E+08, 1.737659758601434E+08, 2.868361917747050E+07,
2461694.500000000, A.D. 2027-Oct-16 00:00:00.0000, -3.831761274903827E+08, 1.651457736398441E+08, 2.879046195974158E+07,
2461701.500000000, A.D. 2027-Oct-23 00:00:00.0000, -3.874959267612707E+08, 1.564160487907342E+08, 2.887819118172628E+07,
2461708.500000000, A.D. 2027-Oct-30 00:00:00.0000, -3.915600091489238E+08, 1.475830616920214E+08, 2.894683470944035E+07,
2461715.500000000, A.D. 2027-Nov-06 00:00:00.0000, -3.953667586332344E+08, 1.386530508841042E+08, 2.899642594103677E+07,
2461722.500000000, A.D. 2027-Nov-13 00:00:00.0000, -3.989146487348167E+08, 1.296322366238331E+08, 2.902700393808164E+07,
2461729.500000000, A.D. 2027-Nov-20 00:00:00.0000, -4.022022412535409E+08, 1.205268218460406E+08, 2.903861331354470E+07,
2461736.500000000, A.D. 2027-Nov-27 00:00:00.0000, -4.052281831711360E+08, 1.113429934904845E+08, 2.903130396990392E+07,
2461743.500000000, A.D. 2027-Dec-04 00:00:00.0000, -4.079912037350575E+08, 1.020869251005832E+08, 2.900513094706694E+07,
2461750.500000000, A.D. 2027-Dec-11 00:00:00.0000, -4.104901122720671E+08, 9.276477972484064E+07, 2.896015435148121E+07,
2461757.500000000, A.D. 2027-Dec-18 00:00:00.0000, -4.127237964539262E+08, 8.338271277889878E+07, 2.889643931332387E+07,
2461764.500000000, A.D. 2027-Dec-25 00:00:00.0000, -4.146912208596312E+08, 7.394687486300460E+07, 2.881405595749178E+07,
2461771.500000000, A.D. 2028-Jan-01 00:00:00.0000, -4.163914257895905E+08, 6.446341454616369E+07, 2.871307938565113E+07,
$$EOE